{
  "type": "FeatureCollection",
  "features": [
    {
      "type": "Feature",
      "properties": {
        "norad_id": 40362,
        "name": "YAOGAN-26",
        "group": "resource",
        "lat": -3.3416042210961185,
        "lon": 165.95957955791712,
        "alt_km": 455.75957965363614,
        "timestamp": "2025-12-11T15:53:39.199335+00:00",
        "meta_object_name": "YAOGAN-26",
        "meta_object_id": "2014-088A",
        "meta_epoch": "2025-12-11T05:44:22.057152",
        "meta_mean_motion": 15.3921601,
        "meta_eccentricity": 0.00064627,
        "meta_inclination": 97.0646,
        "meta_ra_of_asc_node": 345.9664,
        "meta_arg_of_pericenter": 33.7909,
        "meta_mean_anomaly": 326.3748,
        "meta_ephemeris_type": 0,
        "meta_classification_type": "U",
        "meta_norad_cat_id": 40362,
        "meta_element_set_no": 999,
        "meta_rev_at_epoch": 60871,
        "meta_bstar": 0.00081104563,
        "meta_mean_motion_dot": 0.0003157,
        "meta_mean_motion_ddot": 0,
        "tle_line1": "1 40362U 14088A   25345.23914418  .00031570  00000+0  81105-3 0  9990",
        "tle_line2": "2 40362  97.0646 345.9664 0006462  33.7909 326.3748 15.39216010608718"
      },
      "geometry": {
        "type": "Point",
        "coordinates": [
          165.95957955791712,
          -3.3416042210961185
        ]
      }
    },
    {
      "type": "Feature",
      "properties": {
        "norad_id": 40376,
        "name": "SMAP",
        "group": "resource",
        "lat": 5.811316043061583,
        "lon": -10.431875085246851,
        "alt_km": 684.4848925861988,
        "timestamp": "2025-12-11T15:53:39.199345+00:00",
        "meta_object_name": "SMAP",
        "meta_object_id": "2015-003A",
        "meta_epoch": "2025-12-11T06:01:16.024224",
        "meta_mean_motion": 14.63342507,
        "meta_eccentricity": 0.00012018,
        "meta_inclination": 98.1292,
        "meta_ra_of_asc_node": 349.9962,
        "meta_arg_of_pericenter": 89.3802,
        "meta_mean_anomaly": 270.7538,
        "meta_ephemeris_type": 0,
        "meta_classification_type": "U",
        "meta_norad_cat_id": 40376,
        "meta_element_set_no": 999,
        "meta_rev_at_epoch": 58013,
        "meta_bstar": 0.00019975051,
        "meta_mean_motion_dot": 9.85e-06,
        "meta_mean_motion_ddot": 0,
        "tle_line1": "1 40376U 15003A   25345.25087991  .00000985  00000+0  19975-3 0  9994",
        "tle_line2": "2 40376  98.1292 349.9962 0001201  89.3802 270.7538 14.63342507580133"
      },
      "geometry": {
        "type": "Point",
        "coordinates": [
          -10.431875085246851,
          5.811316043061583
        ]
      }
    },
    {
      "type": "Feature",
      "properties": {
        "norad_id": 40536,
        "name": "KOMPSAT-3A",
        "group": "resource",
        "lat": 72.59294969944618,
        "lon": 165.44054823685988,
        "alt_km": 424.7230576650836,
        "timestamp": "2025-12-11T15:53:39.199355+00:00",
        "meta_object_name": "KOMPSAT-3A",
        "meta_object_id": "2015-014A",
        "meta_epoch": "2025-12-11T04:32:58.454880",
        "meta_mean_motion": 15.43853225,
        "meta_eccentricity": 0.00047806,
        "meta_inclination": 97.6791,
        "meta_ra_of_asc_node": 319.4503,
        "meta_arg_of_pericenter": 130.9421,
        "meta_mean_anomaly": 229.224,
        "meta_ephemeris_type": 0,
        "meta_classification_type": "U",
        "meta_norad_cat_id": 40536,
        "meta_element_set_no": 999,
        "meta_rev_at_epoch": 59271,
        "meta_bstar": 0.00062486695,
        "meta_mean_motion_dot": 0.00028323,
        "meta_mean_motion_ddot": 0,
        "tle_line1": "1 40536U 15014A   25345.18956545  .00028323  00000+0  62487-3 0  9998",
        "tle_line2": "2 40536  97.6791 319.4503 0004780 130.9421 229.2240 15.43853225592716"
      },
      "geometry": {
        "type": "Point",
        "coordinates": [
          165.44054823685988,
          72.59294969944618
        ]
      }
    },
    {
      "type": "Feature",
      "properties": {
        "norad_id": 40697,
        "name": "SENTINEL-2A",
        "group": "resource",
        "lat": 0.19027137978210776,
        "lon": 58.18103963721873,
        "alt_km": 791.8982731701453,
        "timestamp": "2025-12-11T15:53:39.199365+00:00",
        "meta_object_name": "SENTINEL-2A",
        "meta_object_id": "2015-028A",
        "meta_epoch": "2025-12-11T05:49:24.089088",
        "meta_mean_motion": 14.30812373,
        "meta_eccentricity": 0.00011033,
        "meta_inclination": 98.5686,
        "meta_ra_of_asc_node": 57.7962,
        "meta_arg_of_pericenter": 89.6458,
        "meta_mean_anomaly": 270.4851,
        "meta_ephemeris_type": 0,
        "meta_classification_type": "U",
        "meta_norad_cat_id": 40697,
        "meta_element_set_no": 999,
        "meta_rev_at_epoch": 54685,
        "meta_bstar": 0.00013218265,
        "meta_mean_motion_dot": 3.03e-06,
        "meta_mean_motion_ddot": 0,
        "tle_line1": "1 40697U 15028A   25345.24263992  .00000303  00000+0  13218-3 0  9991",
        "tle_line2": "2 40697  98.5686  57.7962 0001103  89.6458 270.4851 14.30812373546858"
      },
      "geometry": {
        "type": "Point",
        "coordinates": [
          58.18103963721873,
          0.19027137978210776
        ]
      }
    },
    {
      "type": "Feature",
      "properties": {
        "norad_id": 40701,
        "name": "GAOFEN-8",
        "group": "resource",
        "lat": -10.15679329736239,
        "lon": 165.1373356495813,
        "alt_km": 461.87516646597305,
        "timestamp": "2025-12-11T15:53:39.199375+00:00",
        "meta_object_name": "GAOFEN-8",
        "meta_object_id": "2015-030A",
        "meta_epoch": "2025-12-11T06:34:22.005984",
        "meta_mean_motion": 15.38464623,
        "meta_eccentricity": 0.00115876,
        "meta_inclination": 97.6914,
        "meta_ra_of_asc_node": 163.3428,
        "meta_arg_of_pericenter": 142.7955,
        "meta_mean_anomaly": 217.4094,
        "meta_ephemeris_type": 0,
        "meta_classification_type": "U",
        "meta_norad_cat_id": 40701,
        "meta_element_set_no": 999,
        "meta_rev_at_epoch": 58248,
        "meta_bstar": 0.00064741266,
        "meta_mean_motion_dot": 0.00024584,
        "meta_mean_motion_ddot": 0,
        "tle_line1": "1 40701U 15030A   25345.27386581  .00024584  00000+0  64741-3 0  9997",
        "tle_line2": "2 40701  97.6914 163.3428 0011587 142.7955 217.4094 15.38464623582488"
      },
      "geometry": {
        "type": "Point",
        "coordinates": [
          165.1373356495813,
          -10.15679329736239
        ]
      }
    },
    {
      "type": "Feature",
      "properties": {
        "norad_id": 40718,
        "name": "CARBONITE 1 (CBNT-1)",
        "group": "resource",
        "lat": 42.16774679154574,
        "lon": -6.262542234579167,
        "alt_km": 610.6168104217704,
        "timestamp": "2025-12-11T15:53:39.199385+00:00",
        "meta_object_name": "CARBONITE 1 (CBNT-1)",
        "meta_object_id": "2015-032D",
        "meta_epoch": "2025-12-11T05:33:31.442688",
        "meta_mean_motion": 14.82729869,
        "meta_eccentricity": 0.00142264,
        "meta_inclination": 97.6405,
        "meta_ra_of_asc_node": 166.3425,
        "meta_arg_of_pericenter": 186.5367,
        "meta_mean_anomaly": 173.5664,
        "meta_ephemeris_type": 0,
        "meta_classification_type": "U",
        "meta_norad_cat_id": 40718,
        "meta_element_set_no": 999,
        "meta_rev_at_epoch": 56148,
        "meta_bstar": 0.00033979535,
        "meta_mean_motion_dot": 2.698e-05,
        "meta_mean_motion_ddot": 0,
        "tle_line1": "1 40718U 15032D   25345.23161392  .00002698  00000+0  33980-3 0  9997",
        "tle_line2": "2 40718  97.6405 166.3425 0014226 186.5367 173.5664 14.82729869561483"
      },
      "geometry": {
        "type": "Point",
        "coordinates": [
          -6.262542234579167,
          42.16774679154574
        ]
      }
    },
    {
      "type": "Feature",
      "properties": {
        "norad_id": 40878,
        "name": "YAOGAN-27",
        "group": "resource",
        "lat": 57.34332751706506,
        "lon": 171.4785415114083,
        "alt_km": 1199.83459193021,
        "timestamp": "2025-12-11T15:53:39.199396+00:00",
        "meta_object_name": "YAOGAN-27",
        "meta_object_id": "2015-040A",
        "meta_epoch": "2025-12-11T06:09:27.545184",
        "meta_mean_motion": 13.16061848,
        "meta_eccentricity": 0.00076297,
        "meta_inclination": 100.1013,
        "meta_ra_of_asc_node": 334.9432,
        "meta_arg_of_pericenter": 290.6243,
        "meta_mean_anomaly": 69.4052,
        "meta_ephemeris_type": 0,
        "meta_classification_type": "U",
        "meta_norad_cat_id": 40878,
        "meta_element_set_no": 999,
        "meta_rev_at_epoch": 49294,
        "meta_bstar": 0.0015420823,
        "meta_mean_motion_dot": 5.43e-06,
        "meta_mean_motion_ddot": 0,
        "tle_line1": "1 40878U 15040A   25345.25656881  .00000543  00000+0  15421-2 0  9993",
        "tle_line2": "2 40878 100.1013 334.9432 0007629 290.6243  69.4052 13.16061848492945"
      },
      "geometry": {
        "type": "Point",
        "coordinates": [
          171.4785415114083,
          57.34332751706506
        ]
      }
    }
  ]
}